NORAD_CAT_ID,OBJECT_NAME,OBJECT_TYPE,EPOCH,MEAN_MOTION,ECCENTRICITY,INCLINATION,RA_OF_ASC_NODE,ARG_OF_PERICENTER,MEAN_ANOMALY,BSTAR,MEAN_MOTION_DOT,MEAN_MOTION_DDOT,TLE_LINE0,TLE_LINE1,TLE_LINE2,SEMIMAJOR_AXIS,PERIOD,APOGEE,PERIGEE,DECAYED
51112.0,STARLINK-3374,PAYLOAD,2023-05-13 12:57:23,15.08844454,0.0001218,53.2174,238.1328,87.4268,272.6863,6.0816e-05,6.8e-06,0.0,0 STARLINK-3374,1 51112U 22005J   23133.53984993  .00000680  00000-0  60816-4 0  9990,2 51112  53.2174 238.1328 0001218  87.4268 272.6863 15.08844454 74321,6917.867,95.437,540.574,538.889,0.0
51112.0,STARLINK-3374,PAYLOAD,2023-05-13 16:08:09,15.08848099,0.0001159,53.2173,237.5397,82.162,277.9504,8.3914e-05,1.048e-05,0.0,0 STARLINK-3374,1 51112U 22005J   23133.67232669  .00001048  00000-0  83914-4 0  9994,2 51112  53.2173 237.5397 0001159  82.1620 277.9504 15.08848099 73235,6917.856,95.437,540.522,538.919,0.0
51112.0,STARLINK-3374,PAYLOAD,2023-05-14 12:48:10,15.08834979,0.0001165,53.2171,233.6724,79.0632,281.0491,-2.6137e-05,-7.04e-06,0.0,0 STARLINK-3374,1 51112U 22005J   23134.53346004 -.00000704  00000-0 -26137-4 0  9993,2 51112  53.2171 233.6724 0001165  79.0632 281.0491 15.08834979 74479,6917.896,95.438,540.567,538.955,0.0
51112.0,STARLINK-3374,PAYLOAD,2023-05-14 14:23:33,15.08836984,0.0001247,53.218,233.3766,80.7027,279.4106,-2.7323e-06,-3.31e-06,0.0,0 STARLINK-3374,1 51112U 22005J   23134.59969876 -.00000331  00000-0 -27323-5 0  9992,2 51112  53.2180 233.3766 0001247  80.7027 279.4106 15.08836984 73370,6917.89,95.438,540.617,538.892,0.0
51112.0,STARLINK-3374,PAYLOAD,2023-05-15 12:38:57,15.08846167,9.85e-05,53.2171,229.2096,97.2611,262.8493,3.5906e-05,2.84e-06,0.0,0 STARLINK-3374,1 51112U 22005J   23135.52705166  .00000284  00000-0  35906-4 0  9996,2 51112  53.2171 229.2096 0000985  97.2611 262.8493 15.08846167 74628,6917.862,95.437,540.408,539.045,0.0
51112.0,STARLINK-3374,PAYLOAD,2023-05-16 06:08:12,15.08838625,9.9e-05,53.2166,225.9399,91.8843,268.2263,7.1242e-05,8.46e-06,0.0,0 STARLINK-3374,1 51112U 22005J   23136.25569761  .00000846  00000-0  71242-4 0  9993,2 51112  53.2166 225.9399 0000990  91.8843 268.2263 15.08838625 74731,6917.885,95.438,540.434,539.065,0.0
51112.0,STARLINK-3374,PAYLOAD,2023-05-16 12:29:44,15.08841336,9.97e-05,53.2166,224.7507,90.9487,269.1619,8.4944e-05,1.064e-05,0.0,0 STARLINK-3374,1 51112U 22005J   23136.52065511  .00001064  00000-0  84944-4 0  9993,2 51112  53.2166 224.7507 0000997  90.9487 269.1619 15.08841336 73669,6917.876,95.437,540.431,539.052,0.0
51112.0,STARLINK-3374,PAYLOAD,2023-05-17 10:45:08,15.08841461,0.0001039,53.2162,220.588,90.5852,269.5259,6.7358e-05,7.84e-06,0.0,0 STARLINK-3374,1 51112U 22005J   23137.44801516  .00000784  00000-0  67358-4 0  9996,2 51112  53.2162 220.5880 0001039  90.5852 269.5259 15.08841461 74915,6917.876,95.437,540.46,539.022,0.0
51112.0,STARLINK-3374,PAYLOAD,2023-05-17 15:31:17,15.08845829,0.0001072,53.2162,219.6954,93.003,267.1085,7.952e-05,9.78e-06,0.0,0 STARLINK-3374,1 51112U 22005J   23137.64673139  .00000978  00000-0  79520-4 0  9995,2 51112  53.2162 219.6954 0001072  93.0030 267.1085 15.08845829 73832,6917.863,95.437,540.469,538.986,0.0
51112.0,STARLINK-3374,PAYLOAD,2023-05-18 12:11:19,15.08836928,0.0001175,53.2163,215.8272,113.9377,246.1739,-2.585e-05,-6.99e-06,0.0,0 STARLINK-3374,1 51112U 22005J   23138.50786035 -.00000699  00000-0 -25850-4 0  9990,2 51112  53.2163 215.8272 0001175 113.9377 246.1739 15.08836928 75075,6917.89,95.438,540.568,538.942,0.0
51112.0,STARLINK-3374,PAYLOAD,2023-05-18 13:46:42,15.08836199,0.0001119,53.2172,215.5338,93.0994,267.0126,2.6146e-06,-2.46e-06,0.0,0 STARLINK-3374,1 51112U 22005J   23138.57410117 -.00000246  00000-0  26146-5 0  9999,2 51112  53.2172 215.5338 0001119  93.0994 267.0126 15.08836199 73975,6917.892,95.438,540.531,538.983,0.0
51112.0,STARLINK-3374,PAYLOAD,2023-05-18 21:43:37,15.08836701,0.0001114,53.2166,214.0461,95.4208,264.6912,2.27e-05,7.3e-07,0.0,0 STARLINK-3374,1 51112U 22005J   23138.90530063  .00000073  00000-0  22700-4 0  9997,2 51112  53.2166 214.0461 0001114  95.4208 264.6912 15.08836701 74020,6917.89,95.438,540.526,538.985,0.0
51112.0,STARLINK-3374,PAYLOAD,2023-05-19 10:26:42,15.08842191,0.0001145,53.2165,211.6669,97.753,262.3592,4.4381e-05,4.19e-06,0.0,0 STARLINK-3374,1 51112U 22005J   23139.43521719  .00000419  00000-0  44381-4 0  9997,2 51112  53.2165 211.6669 0001145  97.7530 262.3592 15.08842191 75210,6917.874,95.437,540.531,538.947,0.0
51112.0,STARLINK-3374,PAYLOAD,2023-05-19 21:34:24,15.08845592,0.0001068,53.2164,209.5856,103.5761,256.535,4.0096e-05,3.5e-06,0.0,0 STARLINK-3374,1 51112U 22005J   23139.89889386  .00000350  00000-0  40096-4 0  9997,2 51112  53.2164 209.5856 0001068 103.5761 256.5350 15.08845592 74178,6917.863,95.437,540.467,538.989,0.0
51112.0,STARLINK-3374,PAYLOAD,2023-05-20 05:31:20,15.08833994,0.0001164,53.217,208.0991,96.1981,263.9143,7.7891e-05,9.52e-06,0.0,0 STARLINK-3374,1 51112U 22005J   23140.23010221  .00000952  00000-0  77891-4 0  9992,2 51112  53.2170 208.0991 0001164  96.1981 263.9143 15.08833994 75331,6917.899,95.438,540.569,538.959,0.0
51112.0,STARLINK-3374,PAYLOAD,2023-05-20 13:28:15,15.08845578,0.0001214,53.2171,206.6118,97.1706,262.9425,0.00011971,1.618e-05,0.0,0 STARLINK-3374,1 51112U 22005J   23140.56129443  .00001618  00000-0  11971-3 0  9991,2 51112  53.2171 206.6118 0001214  97.1706 262.9425 15.08845578 75387,6917.863,95.437,540.568,538.889,0.0
51112.0,STARLINK-3374,PAYLOAD,2023-05-20 21:25:11,15.08846371,0.0001098,53.2168,205.1245,94.3368,265.775,0.0001042,1.371e-05,0.0,0 STARLINK-3374,1 51112U 22005J   23140.89249305  .00001371  00000-0  10420-3 0  9991,2 51112  53.2168 205.1245 0001098  94.3368 265.7750 15.08846371 74328,6917.861,95.437,540.485,538.966,0.0
51112.0,STARLINK-3374,PAYLOAD,2023-05-21 13:19:02,15.08849902,0.0001207,53.2172,202.152,90.2907,269.8223,8.4647e-05,1.06e-05,0.0,0 STARLINK-3374,1 51112U 22005J   23141.55488996  .00001060  00000-0  84647-4 0  9994,2 51112  53.2172 202.1520 0001207  90.2907 269.8223 15.08849902 74426,6917.85,95.437,540.55,538.88,0.0
51112.0,STARLINK-3374,PAYLOAD,2023-05-21 21:15:59,15.0883595,0.00014,53.2169,200.665,81.2543,278.8608,-3.2039e-05,-7.98e-06,0.0,0 STARLINK-3374,1 51112U 22005J   23141.88610257 -.00000798  00000-0 -32039-4 0  9994,2 51112  53.2169 200.6650 0001400  81.2543 278.8608 15.08835950 74470,6917.893,95.438,540.726,538.789,0.0
51112.0,STARLINK-3374,PAYLOAD,2023-05-22 13:09:50,15.08834336,0.0001183,53.2161,197.6899,88.3128,271.8,-4.0245e-05,-9.28e-06,0.0,0 STARLINK-3374,1 51112U 22005J   23142.54850579 -.00000928  00000-0 -40245-4 0  9994,2 51112  53.2161 197.6899 0001183  88.3128 271.8000 15.08834336 74574,6917.898,95.438,540.581,538.944,0.0
51112.0,STARLINK-3374,PAYLOAD,2023-05-23 09:49:51,15.08843537,0.0001111,53.2165,193.8238,92.902,267.2099,2.8034e-05,1.58e-06,0.0,0 STARLINK-3374,1 51112U 22005J   23143.40961935  .00000158  00000-0  28034-4 0  9994,2 51112  53.2165 193.8238 0001111  92.9020 267.2099 15.08843537 75814,6917.87,95.437,540.503,538.966,0.0
51112.0,STARLINK-3374,PAYLOAD,2023-05-23 20:57:33,15.08841528,0.0001125,53.2166,191.7429,88.4159,271.6962,7.0993e-05,8.42e-06,0.0,0 STARLINK-3374,1 51112U 22005J   23143.87329962  .00000842  00000-0  70993-4 0  9994,2 51112  53.2166 191.7429 0001125  88.4159 271.6962 15.08841528 74772,6917.876,95.437,540.519,538.962,0.0
51112.0,STARLINK-3374,PAYLOAD,2023-05-24 03:19:05,15.08834858,0.0001178,53.2163,190.5543,80.9138,279.1987,0.00016594,2.354e-05,0.0,0 STARLINK-3374,1 51112U 22005J   23144.13826321  .00002354  00000-0  16594-3 0  9991,2 51112  53.2163 190.5543 0001178  80.9138 279.1987 15.08834858 75921,6917.896,95.438,540.576,538.946,0.0
51112.0,STARLINK-3374,PAYLOAD,2023-05-24 12:51:24,15.08840482,0.0001175,53.2166,188.77,83.9501,276.1625,0.00014792,2.067e-05,0.0,0 STARLINK-3374,1 51112U 22005J   23144.53570172  .00002067  00000-0  14792-3 0  9994,2 51112  53.2166 188.7700 0001175  83.9501 276.1625 15.08840482 74871,6917.879,95.438,540.557,538.931,0.0
51112.0,STARLINK-3374,PAYLOAD,2023-05-26 03:00:40,15.08837742,0.0001123,53.2159,181.6324,92.3739,267.7382,2.0046e-05,3.1e-07,0.0,0 STARLINK-3374,1 51112U 22005J   23146.12546645  .00000031  00000-0  20046-4 0  9998,2 51112  53.2159 181.6324 0001123  92.3739 267.7382 15.08837742 76229,6917.887,95.438,540.529,538.975,0.0
51112.0,STARLINK-3374,PAYLOAD,2023-05-26 12:32:59,15.08838196,0.0001121,53.2158,179.8482,91.9382,268.1738,1.6564e-05,-2.4e-07,0.0,0 STARLINK-3374,1 51112U 22005J   23146.52290629 -.00000024  00000-0  16564-4 0  9993,2 51112  53.2158 179.8482 0001121  91.9382 268.1738 15.08838196 75176,6917.886,95.438,540.526,538.975,0.0
51112.0,STARLINK-3374,PAYLOAD,2023-05-27 10:48:23,15.08837098,0.0001053,53.2158,175.6856,85.7341,274.3771,3.8788e-05,3.3e-06,0.0,0 STARLINK-3374,1 51112U 22005J   23147.45026772  .00000330  00000-0  38788-4 0  9993,2 51112  53.2158 175.6856 0001053  85.7341 274.3771 15.08837098 76420,6917.889,95.438,540.483,539.026,0.0
51112.0,STARLINK-3374,PAYLOAD,2023-05-27 18:45:18,15.08836945,0.0001033,53.2158,174.1992,82.8517,277.2593,4.4426e-05,4.19e-06,0.0,0 STARLINK-3374,1 51112U 22005J   23147.78146840  .00000419  00000-0  44426-4 0  9992,2 51112  53.2158 174.1992 0001033  82.8517 277.2593 15.08836945 75362,6917.89,95.438,540.469,539.04,0.0
51112.0,STARLINK-3374,PAYLOAD,2023-05-28 05:53:00,15.08838437,0.000102,53.2158,172.1175,83.1009,277.0099,6.9774e-05,8.23e-06,0.0,0 STARLINK-3374,1 51112U 22005J   23148.24514788  .00000823  00000-0  69774-4 0  9996,2 51112  53.2158 172.1175 0001020  83.1009 277.0099 15.08838437 75434,6917.885,95.438,540.456,539.045,0.0
51112.0,STARLINK-3374,PAYLOAD,2023-05-28 10:39:10,15.08839385,0.0001027,53.2158,171.2254,82.4002,277.7107,7.4219e-05,8.94e-06,0.0,0 STARLINK-3374,1 51112U 22005J   23148.44386744  .00000894  00000-0  74219-4 0  9995,2 51112  53.2158 171.2254 0001027  82.4002 277.7107 15.08839385 75467,6917.882,95.438,540.458,539.037,0.0
